LEMUR-2-ARIANNA         
1 62699U 25009CU  26094.93770300  .00010937  00000+0  85173-3 0  9994
2 62699  97.6918 177.0002 0003935 100.5262 259.6406 15.01392628 66569
LEMUR-2-ALISIA          
1 62706U 25009DB  26094.73012943  .00013080  00000+0  10105-2 0  9997
2 62706  97.6933 177.4690 0005390 104.1115 256.0708 15.01648522 89137
LEMUR-2-ROUNDTRIPPER    
1 62711U 25009DG  26094.80383457  .00014134  00000+0  10633-2 0  9999
2 62711  97.7247 177.6630 0004818  51.6176 308.5481 15.02641148 66601
LEMUR-2-MYNAMEISJEFF    
1 62712U 25009DH  26094.80226993  .00013349  00000+0  10047-2 0  9997
2 62712  97.7288 177.9984 0004243  81.1432 279.0274 15.02641929 66606
LEMUR-2-LEIA-PHILIP     
1 63246U 25052AN  26094.95428937  .00007779  00000+0  68056-3 0  9990
2 63246  97.6906 348.1202 0004924 107.1814 252.9947 14.96995167 57716
LEMUR-2-LIA-MARTIN      
1 63248U 25052AQ  26094.70543856  .00009107  00000+0  79254-3 0  9992
2 63248  97.6965 348.2636 0004795  82.0230 278.1536 14.97152488 57686
LEMUR-2-DELOITTE-1      
1 63259U 25052BB  26094.67500007  .00006548  00000+0  57269-3 0  9999
2 63259  97.7002 348.5547 0002161  41.3306 318.8079 14.97076094 57695
LEMUR-2-EMERSONROSE     
1 63261U 25052BD  26094.65590409  .00007817  00000+0  65722-3 0  9998
2 63261  97.6985 348.9437 0001435  60.6682 299.4683 14.98549485 57722
LEMUR-2-MARACHE-FRAN    
1 63262U 25052BE  26094.94089472  .00007782  00000+0  64132-3 0  9999
2 63262  97.6986 349.4503 0001124 336.6739  23.4433 14.99323802 57786
LEMUR-2-THEFALCONER     
1 63264U 25052BG  26094.95864319  .00007430  00000+0  65287-3 0  9995
2 63264  97.6931 348.5315 0000927 216.8508 143.2650 14.96850681 57736
LEMUR-2-UNTITLED-SC     
1 63351U 25061A   26094.88658588  .00006297  00000+0  35919-3 0  9992
2 63351  97.5594  70.8375 0019678 153.2584 206.9666 15.12954283 56509
LEMUR-2-ESPERANZA       
1 63352U 25061B   26094.93421081  .00006145  00000+0  34988-3 0  9992
2 63352  97.5603  70.9615 0019346 152.0559 208.1715 15.13038969 56515
LEMUR-2-KREMPEL-BRO2    
1 63353U 25061C   26094.91578982  .00005334  00000+0  30049-3 0  9997
2 63353  97.5648  71.3832 0020534 145.1290 215.1291 15.13463146 56524
LEMUR-2-THERMORAPTOR    
1 63354U 25061D   26094.90135952  .00005612  00000+0  31541-3 0  9990
2 63354  97.5653  71.4314 0020227 144.4125 215.8459 15.13527047 56529
LEMUR-2-NEUROSPICY      
1 63355U 25061E   26094.87852090  .00006764  00000+0  37852-3 0  9996
2 63355  97.5582  71.0920 0017937 147.6689 212.5645 15.13641566 56528
LEMUR-2-TILLINFINITY    
1 63356U 25061F   26094.87606100  .00006637  00000+0  36526-3 0  9992
2 63356  97.5567  71.3287 0019483 136.7805 223.4959 15.14220623 56547
