[{"OBJECT_NAME":"LEMUR-2-ARIANNA","OBJECT_ID":"2025-009CU","EPOCH":"2026-04-04T22:30:17.539200","MEAN_MOTION":15.01392628,"ECCENTRICITY":0.00039356,"INCLINATION":97.6918,"RA_OF_ASC_NODE":177.0002,"ARG_OF_PERICENTER":100.5262,"MEAN_ANOMALY":259.6406,"EPHEMERIS_TYPE":0,"CLASSIFICATION_TYPE":"U","NORAD_CAT_ID":62699,"ELEMENT_SET_NO":999,"REV_AT_EPOCH":6656,"BSTAR":0.00085173242,"MEAN_MOTION_DOT":0.00010937,"MEAN_MOTION_DDOT":0},{"OBJECT_NAME":"LEMUR-2-ALISIA","OBJECT_ID":"2025-009DB","EPOCH":"2026-04-04T17:31:23.182752","MEAN_MOTION":15.01648522,"ECCENTRICITY":0.00053904,"INCLINATION":97.6933,"RA_OF_ASC_NODE":177.469,"ARG_OF_PERICENTER":104.1115,"MEAN_ANOMALY":256.0708,"EPHEMERIS_TYPE":0,"CLASSIFICATION_TYPE":"U","NORAD_CAT_ID":62706,"ELEMENT_SET_NO":999,"REV_AT_EPOCH":8913,"BSTAR":0.0010104866,"MEAN_MOTION_DOT":0.0001308,"MEAN_MOTION_DDOT":0},{"OBJECT_NAME":"LEMUR-2-ROUNDTRIPPER","OBJECT_ID":"2025-009DG","EPOCH":"2026-04-04T19:17:31.306848","MEAN_MOTION":15.02641148,"ECCENTRICITY":0.00048185,"INCLINATION":97.7247,"RA_OF_ASC_NODE":177.663,"ARG_OF_PERICENTER":51.6176,"MEAN_ANOMALY":308.5481,"EPHEMERIS_TYPE":0,"CLASSIFICATION_TYPE":"U","NORAD_CAT_ID":62711,"ELEMENT_SET_NO":999,"REV_AT_EPOCH":6660,"BSTAR":0.0010633223,"MEAN_MOTION_DOT":0.00014134,"MEAN_MOTION_DDOT":0},{"OBJECT_NAME":"LEMUR-2-MYNAMEISJEFF","OBJECT_ID":"2025-009DH","EPOCH":"2026-04-04T19:15:16.121952","MEAN_MOTION":15.02641929,"ECCENTRICITY":0.00042433,"INCLINATION":97.7288,"RA_OF_ASC_NODE":177.9984,"ARG_OF_PERICENTER":81.1432,"MEAN_ANOMALY":279.0274,"EPHEMERIS_TYPE":0,"CLASSIFICATION_TYPE":"U","NORAD_CAT_ID":62712,"ELEMENT_SET_NO":999,"REV_AT_EPOCH":6660,"BSTAR":0.0010047191,"MEAN_MOTION_DOT":0.00013349,"MEAN_MOTION_DDOT":0},{"OBJECT_NAME":"LEMUR-2-LEIA-PHILIP","OBJECT_ID":"2025-052AN","EPOCH":"2026-04-04T22:54:10.601568","MEAN_MOTION":14.96995167,"ECCENTRICITY":0.00049242,"INCLINATION":97.6906,"RA_OF_ASC_NODE":348.1202,"ARG_OF_PERICENTER":107.1814,"MEAN_ANOMALY":252.9947,"EPHEMERIS_TYPE":0,"CLASSIFICATION_TYPE":"U","NORAD_CAT_ID":63246,"ELEMENT_SET_NO":999,"REV_AT_EPOCH":5771,"BSTAR":0.00068055572,"MEAN_MOTION_DOT":7.779e-5,"MEAN_MOTION_DDOT":0},{"OBJECT_NAME":"LEMUR-2-LIA-MARTIN","OBJECT_ID":"2025-052AQ","EPOCH":"2026-04-04T16:55:49.891584","MEAN_MOTION":14.97152488,"ECCENTRICITY":0.00047952,"INCLINATION":97.6965,"RA_OF_ASC_NODE":348.2636,"ARG_OF_PERICENTER":82.023,"MEAN_ANOMALY":278.1536,"EPHEMERIS_TYPE":0,"CLASSIFICATION_TYPE":"U","NORAD_CAT_ID":63248,"ELEMENT_SET_NO":999,"REV_AT_EPOCH":5768,"BSTAR":0.00079254363,"MEAN_MOTION_DOT":9.107e-5,"MEAN_MOTION_DDOT":0},{"OBJECT_NAME":"LEMUR-2-DELOITTE-1","OBJECT_ID":"2025-052BB","EPOCH":"2026-04-04T16:12:00.006048","MEAN_MOTION":14.97076094,"ECCENTRICITY":0.00021618,"INCLINATION":97.7002,"RA_OF_ASC_NODE":348.5547,"ARG_OF_PERICENTER":41.3306,"MEAN_ANOMALY":318.8079,"EPHEMERIS_TYPE":0,"CLASSIFICATION_TYPE":"U","NORAD_CAT_ID":63259,"ELEMENT_SET_NO":999,"REV_AT_EPOCH":5769,"BSTAR":0.00057269183,"MEAN_MOTION_DOT":6.548e-5,"MEAN_MOTION_DDOT":0},{"OBJECT_NAME":"LEMUR-2-EMERSONROSE","OBJECT_ID":"2025-052BD","EPOCH":"2026-04-04T15:44:30.113376","MEAN_MOTION":14.98549485,"ECCENTRICITY":0.0001435,"INCLINATION":97.6985,"RA_OF_ASC_NODE":348.9437,"ARG_OF_PERICENTER":60.6682,"MEAN_ANOMALY":299.4683,"EPHEMERIS_TYPE":0,"CLASSIFICATION_TYPE":"U","NORAD_CAT_ID":63261,"ELEMENT_SET_NO":999,"REV_AT_EPOCH":5772,"BSTAR":0.00065722,"MEAN_MOTION_DOT":7.817e-5,"MEAN_MOTION_DDOT":0},{"OBJECT_NAME":"LEMUR-2-MARACHE-FRAN","OBJECT_ID":"2025-052BE","EPOCH":"2026-04-04T22:34:53.303808","MEAN_MOTION":14.99323802,"ECCENTRICITY":0.00011241,"INCLINATION":97.6986,"RA_OF_ASC_NODE":349.4503,"ARG_OF_PERICENTER":336.6739,"MEAN_ANOMALY":23.4433,"EPHEMERIS_TYPE":0,"CLASSIFICATION_TYPE":"U","NORAD_CAT_ID":63262,"ELEMENT_SET_NO":999,"REV_AT_EPOCH":5778,"BSTAR":0.00064132427,"MEAN_MOTION_DOT":7.782e-5,"MEAN_MOTION_DDOT":0},{"OBJECT_NAME":"LEMUR-2-THEFALCONER","OBJECT_ID":"2025-052BG","EPOCH":"2026-04-04T23:00:26.771616","MEAN_MOTION":14.96850681,"ECCENTRICITY":9.274e-5,"INCLINATION":97.6931,"RA_OF_ASC_NODE":348.5315,"ARG_OF_PERICENTER":216.8508,"MEAN_ANOMALY":143.265,"EPHEMERIS_TYPE":0,"CLASSIFICATION_TYPE":"U","NORAD_CAT_ID":63264,"ELEMENT_SET_NO":999,"REV_AT_EPOCH":5773,"BSTAR":0.00065286813,"MEAN_MOTION_DOT":7.43e-5,"MEAN_MOTION_DDOT":0},{"OBJECT_NAME":"LEMUR-2-UNTITLED-SC","OBJECT_ID":"2025-061A","EPOCH":"2026-04-04T21:16:41.020032","MEAN_MOTION":15.12954283,"ECCENTRICITY":0.00196789,"INCLINATION":97.5594,"RA_OF_ASC_NODE":70.8375,"ARG_OF_PERICENTER":153.2584,"MEAN_ANOMALY":206.9666,"EPHEMERIS_TYPE":0,"CLASSIFICATION_TYPE":"U","NORAD_CAT_ID":63351,"ELEMENT_SET_NO":999,"REV_AT_EPOCH":5650,"BSTAR":0.00035919252,"MEAN_MOTION_DOT":6.297e-5,"MEAN_MOTION_DDOT":0},{"OBJECT_NAME":"LEMUR-2-ESPERANZA","OBJECT_ID":"2025-061B","EPOCH":"2026-04-04T22:25:15.813984","MEAN_MOTION":15.13038969,"ECCENTRICITY":0.00193467,"INCLINATION":97.5603,"RA_OF_ASC_NODE":70.9615,"ARG_OF_PERICENTER":152.0559,"MEAN_ANOMALY":208.1715,"EPHEMERIS_TYPE":0,"CLASSIFICATION_TYPE":"U","NORAD_CAT_ID":63352,"ELEMENT_SET_NO":999,"REV_AT_EPOCH":5651,"BSTAR":0.00034987752,"MEAN_MOTION_DOT":6.145e-5,"MEAN_MOTION_DDOT":0},{"OBJECT_NAME":"LEMUR-2-KREMPEL-BRO2","OBJECT_ID":"2025-061C","EPOCH":"2026-04-04T21:58:44.240448","MEAN_MOTION":15.13463146,"ECCENTRICITY":0.00205345,"INCLINATION":97.5648,"RA_OF_ASC_NODE":71.3832,"ARG_OF_PERICENTER":145.129,"MEAN_ANOMALY":215.1291,"EPHEMERIS_TYPE":0,"CLASSIFICATION_TYPE":"U","NORAD_CAT_ID":63353,"ELEMENT_SET_NO":999,"REV_AT_EPOCH":5652,"BSTAR":0.00030049467,"MEAN_MOTION_DOT":5.334e-5,"MEAN_MOTION_DDOT":0},{"OBJECT_NAME":"LEMUR-2-THERMORAPTOR","OBJECT_ID":"2025-061D","EPOCH":"2026-04-04T21:37:57.462528","MEAN_MOTION":15.13527047,"ECCENTRICITY":0.00202276,"INCLINATION":97.5653,"RA_OF_ASC_NODE":71.4314,"ARG_OF_PERICENTER":144.4125,"MEAN_ANOMALY":215.8459,"EPHEMERIS_TYPE":0,"CLASSIFICATION_TYPE":"U","NORAD_CAT_ID":63354,"ELEMENT_SET_NO":999,"REV_AT_EPOCH":5652,"BSTAR":0.00031541339,"MEAN_MOTION_DOT":5.612e-5,"MEAN_MOTION_DDOT":0},{"OBJECT_NAME":"LEMUR-2-NEUROSPICY","OBJECT_ID":"2025-061E","EPOCH":"2026-04-04T21:05:04.205760","MEAN_MOTION":15.13641566,"ECCENTRICITY":0.00179375,"INCLINATION":97.5582,"RA_OF_ASC_NODE":71.092,"ARG_OF_PERICENTER":147.6689,"MEAN_ANOMALY":212.5645,"EPHEMERIS_TYPE":0,"CLASSIFICATION_TYPE":"U","NORAD_CAT_ID":63355,"ELEMENT_SET_NO":999,"REV_AT_EPOCH":5652,"BSTAR":0.00037851594,"MEAN_MOTION_DOT":6.764e-5,"MEAN_MOTION_DDOT":0},{"OBJECT_NAME":"LEMUR-2-TILLINFINITY","OBJECT_ID":"2025-061F","EPOCH":"2026-04-04T21:01:31.670400","MEAN_MOTION":15.14220623,"ECCENTRICITY":0.0019483,"INCLINATION":97.5567,"RA_OF_ASC_NODE":71.3287,"ARG_OF_PERICENTER":136.7805,"MEAN_ANOMALY":223.4959,"EPHEMERIS_TYPE":0,"CLASSIFICATION_TYPE":"U","NORAD_CAT_ID":63356,"ELEMENT_SET_NO":999,"REV_AT_EPOCH":5654,"BSTAR":0.0003652575,"MEAN_MOTION_DOT":6.637e-5,"MEAN_MOTION_DDOT":0}]
